[{"OBJECT_ID":"2007-044A","OBJECT_NAME":"OPTUS D2","NORAD_CAT_ID":"32252","OBJECT_TYPE":"PAYLOAD","PERIOD":"1436.184","INCLINATION":"0.0188","APOGEE":"35803.486","PERIGEE":"35773.143","ECCENTRICITY":"0.0003598","MEAN_MOTION":"1.00265656","TLE_LINE1":"1 32252U 07044A   16237.83626765  .00000000  00000-0  10000-3 0  9995","TLE_LINE2":"2 32252   0.0188   6.9762 0003598 151.0649 268.5001  1.00265656 32518","LAUNCH_DATE":"2007-10-05","LAUNCH_SITE":"FRENCH GUIANA","OWNER":"AUSTRALIA","ORBIT_TYPE":"Geosynchronous","OPERATIONAL_STATUS":"Operational","satInfo":{"lng":-147.75238761063156,"lat":-0.15889126090188346,"elevation":-8.725348122351804,"azimuth":102.75238761063152,"range":42676.7618733159,"height":35804.88324494395,"velocity":3.0742742124120093},"x":-164,"y":241,"dx":-2.600067592151703,"dy":-1.6403689979220912},{"OBJECT_ID":"2007-044B","OBJECT_NAME":"INTELSAT 11 (PAS 11)","NORAD_CAT_ID":"32253","OBJECT_TYPE":"PAYLOAD","PERIOD":"1436.086","INCLINATION":"0.04","APOGEE":"35798.428","PERIGEE":"35774.377","ECCENTRICITY":"0.0002852","MEAN_MOTION":"1.00272478","TLE_LINE1":"1 32253U 07044B   16239.32519558 -.00000297  00000-0  00000+0 0  9997","TLE_LINE2":"2 32253   0.0400 249.3364 0002852 278.2851 241.4307  1.00272478 32616","LAUNCH_DATE":"2007-10-05","LAUNCH_SITE":"FRENCH GUIANA","OWNER":"INTERNATIONAL TELECOMMUNICATIONS SATELLITE ORGANIZATION (INTELSAT)","ORBIT_TYPE":"Geosynchronous","OPERATIONAL_STATUS":"Operational","satInfo":{"lng":-43.42563121670039,"lat":1.901179346343504,"elevation":-6.710687767542659,"azimuth":358.4256312167004,"range":42440.45074703178,"height":35794.73993504128,"velocity":3.0740120309176198},"x":-210,"y":-208,"dx":2.232554203555868,"dy":-2.11311421707661},{"OBJECT_ID":"2007-056A","OBJECT_NAME":"STAR ONE C1","NORAD_CAT_ID":"32293","OBJECT_TYPE":"PAYLOAD","PERIOD":"1436.102","INCLINATION":"0.0208","APOGEE":"35798.443","PERIGEE":"35774.965","ECCENTRICITY":"0.0002784","MEAN_MOTION":"1.00271402","TLE_LINE1":"1 32293U 07056A   16238.25293134 -.00000302 +00000-0 +00000-0 0  9992","TLE_LINE2":"2 32293 000.0208 234.1530 0002784 298.4686 187.3771 01.00271402015853","LAUNCH_DATE":"2007-11-14","LAUNCH_SITE":"FRENCH GUIANA","OWNER":"BRAZIL","ORBIT_TYPE":"Geosynchronous","OPERATIONAL_STATUS":"Operational","satInfo":{"lng":-78.52076552641647,"lat":1.7767925899133288,"elevation":-6.83064720843334,"azimuth":33.520765526416454,"range":42464.45691801023,"height":35805.16974919846,"velocity":3.0738361295328995},"x":-298,"y":-57,"dx":0.6117326437386946,"dy":-3.0123498674301206},{"OBJECT_ID":"2007-056B","OBJECT_NAME":"SKYNET 5B","NORAD_CAT_ID":"32294","OBJECT_TYPE":"PAYLOAD","PERIOD":"1436.039","INCLINATION":"0.0699","APOGEE":"35801.228","PERIGEE":"35769.723","ECCENTRICITY":"0.0003736","MEAN_MOTION":"1.00275784","TLE_LINE1":"1 32294U 07056B   16238.96463987 +.00000115 +00000-0 +00000-0 0  9997","TLE_LINE2":"2 32294 000.0699 357.2396 0003736 164.5998 185.2001 01.00275784032301","LAUNCH_DATE":"2007-11-14","LAUNCH_SITE":"FRENCH GUIANA","OWNER":"UNITED KINGDOM","ORBIT_TYPE":"Geosynchronous","OPERATIONAL_STATUS":"Operational","satInfo":{"lng":61.648408243873426,"lat":0.1730446187879916,"elevation":-8.410054136555626,"azimuth":253.35159175612657,"range":42596.26034602574,"height":35760.264262686636,"velocity":3.0756424988141426},"x":263,"y":-136,"dx":1.4605636905005843,"dy":2.7067195064326515},{"OBJECT_ID":"2007-057A","OBJECT_NAME":"ASTRA 4A (SIRIUS 4)","NORAD_CAT_ID":"32299","OBJECT_TYPE":"PAYLOAD","PERIOD":"1436.104","INCLINATION":"0.0453","APOGEE":"35797.379","PERIGEE":"35776.120","ECCENTRICITY":"0.0002521","MEAN_MOTION":"1.00271239","TLE_LINE1":"1 32299U 07057A   16239.09413947  .00000004  00000-0  00000+0 0  9995","TLE_LINE2":"2 32299   0.0453 295.0313 0002521 220.8542 217.5776  1.00271239 32044","LAUNCH_DATE":"2007-11-17","LAUNCH_SITE":"TYURATAM MISSILE AND SPACE COMPLEX","OWNER":"SOCIÉTÉ EUROPÉENNE DES SATELLITES","ORBIT_TYPE":"Geosynchronous","OPERATIONAL_STATUS":"Operational","satInfo":{"lng":8.772006432319822,"lat":1.8275628710637453,"elevation":-6.781762181709265,"azimuth":306.2279935676802,"range":42454.297017962694,"height":35800.54669411267,"velocity":3.0739179207438783},"x":44,"y":-283,"dx":3.0379623314181896,"dy":0.46878167237481283},{"OBJECT_ID":"2007-063B","OBJECT_NAME":"HORIZONS 2","NORAD_CAT_ID":"32388","OBJECT_TYPE":"PAYLOAD","PERIOD":"1436.143","INCLINATION":"0.0131","APOGEE":"35798.578","PERIGEE":"35776.433","ECCENTRICITY":"0.0002626","MEAN_MOTION":"1.00268542","TLE_LINE1":"1 32388U 07063B   16238.81068332 -.00000209  00000-0  00000+0 0  9992","TLE_LINE2":"2 32388   0.0131 111.5089 0002626  51.7254 187.9413  1.00268542 31955","LAUNCH_DATE":"2007-12-21","LAUNCH_SITE":"FRENCH GUIANA","OWNER":"INTERNATIONAL TELECOMMUNICATIONS SATELLITE ORGANIZATION (INTELSAT)","ORBIT_TYPE":"Geosynchronous","OPERATIONAL_STATUS":"Operational","satInfo":{"lng":65.976835572413,"lat":0.04655736205825092,"elevation":-8.528902669661566,"azimuth":249.02316442758703,"range":42633.46772435102,"height":35783.86859457618,"velocity":3.0748050577912767},"x":274,"y":-117,"dx":1.251771440788762,"dy":2.8084683376254116},{"OBJECT_ID":"2008-003A","OBJECT_NAME":"EXPRESS AM-33","NORAD_CAT_ID":"32478","OBJECT_TYPE":"PAYLOAD","PERIOD":"1436.127","INCLINATION":"0.0339","APOGEE":"35793.189","PERIGEE":"35781.188","ECCENTRICITY":"0.0001423","MEAN_MOTION":"1.00269673","TLE_LINE1":"1 32478U 08003A   16239.58005707 -.00000309  00000-0  00000+0 0  9990","TLE_LINE2":"2 32478   0.0339 273.2148 0001423 347.4361  19.8879  1.00269673 31703","LAUNCH_DATE":"2008-01-28","LAUNCH_SITE":"TYURATAM MISSILE AND SPACE COMPLEX","OWNER":"COMMONWEALTH OF INDEPENDENT STATES","ORBIT_TYPE":"Geosynchronous","OPERATIONAL_STATUS":"Operational","satInfo":{"lng":53.67554797913972,"lat":-0.29032379756775717,"elevation":-8.855944744568596,"azimuth":261.3244520208603,"range":42679.8541935231,"height":35793.45151596989,"velocity":3.0742307149758124},"x":241,"y":-170,"dx":1.8210422972830607,"dy":2.476832541857993},{"OBJECT_ID":"2008-006A","OBJECT_NAME":"THOR 5","NORAD_CAT_ID":"32487","OBJECT_TYPE":"PAYLOAD","PERIOD":"1436.031","INCLINATION":"0.0588","APOGEE":"35795.868","PERIGEE":"35774.752","ECCENTRICITY":"0.0002504","MEAN_MOTION":"1.00276374","TLE_LINE1":"1 32487U 08006A   16239.18851640 -.00000037  00000-0  00000+0 0  9992","TLE_LINE2":"2 32487   0.0588 266.9078 0002504 259.3781 235.6868  1.00276374 31261","LAUNCH_DATE":"2008-02-11","LAUNCH_SITE":"TYURATAM MISSILE AND SPACE COMPLEX","OWNER":"NORWAY","ORBIT_TYPE":"Geosynchronous","OPERATIONAL_STATUS":"Operational","satInfo":{"lng":14.189517356027093,"lat":0.9836774274920247,"elevation":-7.607560086541022,"azimuth":300.8104826439729,"range":42554.175454833494,"height":35807.69081569369,"velocity":3.073628927795031},"x":72,"y":-277,"dx":2.979853167848705,"dy":0.7534387060939124},{"OBJECT_ID":"2008-007A","OBJECT_NAME":"WINDS (KIZUNA)","NORAD_CAT_ID":"32500","OBJECT_TYPE":"PAYLOAD","PERIOD":"1436.102","INCLINATION":"0.211","APOGEE":"35796.752","PERIGEE":"35776.664","ECCENTRICITY":"0.0002382","MEAN_MOTION":"1.00271387","TLE_LINE1":"1 32500U 08007A   16238.92132579 -.00000286 +00000-0 +00000-0 0  9990","TLE_LINE2":"2 32500 000.2110 093.0578 0002382 032.5779 323.6414 01.00271387030977","LAUNCH_DATE":"2008-02-23","LAUNCH_SITE":"TANEGASHIMA SPACE CENTER","OWNER":"JAPAN","ORBIT_TYPE":"Geosynchronous","OPERATIONAL_STATUS":"Operational","satInfo":{"lng":41.7723948383871,"lat":-0.195755059581027,"elevation":-8.771176299753977,"azimuth":273.2276051616129,"range":42632.21338357272,"height":35755.74763760862,"velocity":3.075925901898569},"x":199,"y":-213,"dx":2.2940164609798948,"dy":2.0490994682356938},{"OBJECT_ID":"2008-013A","OBJECT_NAME":"DIRECTV 11","NORAD_CAT_ID":"32729","OBJECT_TYPE":"PAYLOAD","PERIOD":"1436.092","INCLINATION":"0.022","APOGEE":"35787.852","PERIGEE":"35785.179","ECCENTRICITY":"3.17e-05","MEAN_MOTION":"1.00272075","TLE_LINE1":"1 32729U 08013A   16239.11229942 -.00000154  00000-0  00000+0 0  9996","TLE_LINE2":"2 32729   0.0220 310.6394 0000317 275.0430  50.3310  1.00272075 31018","LAUNCH_DATE":"2008-03-19","LAUNCH_SITE":"SEA LAUNCH","OWNER":"UNITED STATES OF AMERICA","ORBIT_TYPE":"Geosynchronous","OPERATIONAL_STATUS":"Operational","satInfo":{"lng":-104.68496362760065,"lat":-0.27848770753721575,"elevation":-8.845487832358996,"azimuth":59.684963627600624,"range":42673.13751712802,"height":35787.969939732546,"velocity":3.074684191462431},"x":-295,"y":72,"dx":-0.7794450232355795,"dy":-2.9742475238255257},{"OBJECT_ID":"2008-013B","OBJECT_NAME":"BLOCK DM-SL R/B","NORAD_CAT_ID":"32730","OBJECT_TYPE":"ROCKET BODY","PERIOD":"499.781","INCLINATION":"0.1308","APOGEE":"28761.652","PERIGEE":"205.200","ECCENTRICITY":"0.6844275","MEAN_MOTION":"2.88126061","TLE_LINE1":"1 32730U 08013B   16238.96753097  .00012836  00000-0  86703-3 0  9990","TLE_LINE2":"2 32730   0.1308 148.9446 6844275  40.8384 142.7937  2.88126061 77302","LAUNCH_DATE":"2008-03-19","LAUNCH_SITE":"SEA LAUNCH","OWNER":"SEA LAUNCH DEMO","ORBIT_TYPE":"Highly Elliptical Orbit","OPERATIONAL_STATUS":"N/A, derelict rocket body","satInfo":{"lng":172.29525054974596,"lat":0.056862866999031945,"elevation":-18.204660059175126,"azimuth":142.70474945025404,"range":20287.42377513207,"height":12893.842623399461,"velocity":4.569162491492815},"x":12,"y":102,"dx":-4.527912502466348,"dy":0.6125799896125892}]